ORBCOMM FM06            
1 25118U 97084G   26165.02934238  .00001139  00000+0  34583-3 0  9995
2 25118  45.0141  67.9140 0001454 321.6839  60.8097 14.47555891493934
ORBCOMM FM04            
1 25159U 98007C   26165.25913131  .00000754  00000+0  30346-3 0  9995
2 25159 107.9627 163.3929 0041262 329.8102  30.0662 14.35736373476173
ORBCOMM FM19            
1 25415U 98046C   26164.97943182  .00000656  00000+0  25400-3 0  9996
2 25415  44.9938 258.8098 0004526 268.8726 260.9102 14.39490987456315
ORBCOMM FM20            
1 25416U 98046D   26163.98366676  .00000543  00000+0  22434-3 0  9993
2 25416  44.9943 271.4189 0002054 236.4114 123.6538 14.38061574456188
ORBCOMM FM27            
1 25481U 98053G   26165.20252670  .00000795  00000+0  30012-3 0  9998
2 25481  45.0066 349.5299 0000717 180.2182 179.8666 14.39136300449809
ORBCOMM FM32            
1 25982U 99065C   26165.23172915  .00000419  00000+0  18708-3 0  9995
2 25982  45.0137 187.2293 0004644  19.1685 340.9337 14.37127156386663
ORBCOMM FM109           
1 40086U 14040A   26165.01636217  .00000400  00000+0  12079-3 0  9998
2 40086  47.0029 106.4778 0001856 239.1826 120.8878 14.58841914633883
ORBCOMM FM114           
1 41179U 15081A   26164.28024829  .00000433  00000+0  12794-3 0  9996
2 41179  47.0060  20.4759 0002252 192.2086 167.8745 14.58854678557187
ORBCOMM FM110           
1 41182U 15081D   26165.29599256  .00000633  00000+0  17014-3 0  9995
2 41182  47.0033  15.1133 0002589  58.4001 301.7137 14.58876713557202
ORBCOMM FM118           
1 41183U 15081E   26163.89202560  .00002535  00000+0  57212-3 0  9996
2 41183  47.0079  22.0820 0002929  12.9133 347.1827 14.58879544557106
ORBCOMM FM112           
1 41184U 15081F   26165.06091727  .00000570  00000+0  15667-3 0  9994
2 41184  46.9998 285.0310 0003553 204.6631 155.4085 14.58900185558492
ORBCOMM FM113           
1 41185U 15081G   26163.05131900  .00000335  00000+0  10705-3 0  9997
2 41185  47.0017 294.9070 0001998 204.7602 155.3188 14.58853293558185
ORBCOMM FM108           
1 41187U 15081J   26164.38348595  .00000377  00000+0  11596-3 0  9991
2 41187  47.0056 200.1825 0002734 209.5581 150.5151 14.58866983559521
ORBCOMM FM117           
1 41188U 15081K   26164.82839462  .00000325  00000+0  10492-3 0  9996
2 41188  46.9996 196.7126 0003310 211.3571 148.7118 14.58863203559634
ORBCOMM FM116           
1 41189U 15081L   26165.01434114  .00000596  00000+0  16223-3 0  9992
2 41189  47.0030 285.6241 0000716  38.4671 321.6265 14.58879012558479
